CCSDS_OMM_VERS = 2.0
CREATION_DATE  = 
ORIGINATOR     = 

OBJECT_NAME    = STARLINK-35297
OBJECT_ID      = 2025-232F
CENTER_NAME    = EARTH
REF_FRAME      = TEME
TIME_SYSTEM    = UTC
MEAN_ELEMENT_THEORY = SGP/SGP4

EPOCH          = 2025-10-29T22:00:01.999584
MEAN_MOTION    = 15.74480071
ECCENTRICITY   = .0001266
INCLINATION    = 53.1586
RA_OF_ASC_NODE = 355.2242
ARG_OF_PERICENTER = 97.7210
MEAN_ANOMALY   = 99.9196

EPHEMERIS_TYPE = 0
CLASSIFICATION_TYPE = U
NORAD_CAT_ID   = 66010
ELEMENT_SET_NO = 999
REV_AT_EPOCH   = 251
BSTAR          = -.14090694E-1
MEAN_MOTION_DOT = -.18285E-1
MEAN_MOTION_DDOT = 0

CCSDS_OMM_VERS = 2.0
CREATION_DATE  = 
ORIGINATOR     = 

OBJECT_NAME    = STARLINK-35256
OBJECT_ID      = 2025-232G
CENTER_NAME    = EARTH
REF_FRAME      = TEME
TIME_SYSTEM    = UTC
MEAN_ELEMENT_THEORY = SGP/SGP4

EPOCH          = 2025-10-29T22:00:01.999584
MEAN_MOTION    = 15.74460361
ECCENTRICITY   = .00012584
INCLINATION    = 53.1584
RA_OF_ASC_NODE = 355.2078
ARG_OF_PERICENTER = 89.2610
MEAN_ANOMALY   = 116.0644

EPHEMERIS_TYPE = 0
CLASSIFICATION_TYPE = U
NORAD_CAT_ID   = 66011
ELEMENT_SET_NO = 999
REV_AT_EPOCH   = 251
BSTAR          = -.13911673E-1
MEAN_MOTION_DOT = -.180684E-1
MEAN_MOTION_DDOT = 0

CCSDS_OMM_VERS = 2.0
CREATION_DATE  = 
ORIGINATOR     = 

OBJECT_NAME    = STARLINK-35293
OBJECT_ID      = 2025-232H
CENTER_NAME    = EARTH
REF_FRAME      = TEME
TIME_SYSTEM    = UTC
MEAN_ELEMENT_THEORY = SGP/SGP4

EPOCH          = 2025-10-29T22:00:01.999584
MEAN_MOTION    = 15.74482515
ECCENTRICITY   = .0001295
INCLINATION    = 53.1583
RA_OF_ASC_NODE = 355.2195
ARG_OF_PERICENTER = 75.2078
MEAN_ANOMALY   = 124.3316

EPHEMERIS_TYPE = 0
CLASSIFICATION_TYPE = U
NORAD_CAT_ID   = 66012
ELEMENT_SET_NO = 999
REV_AT_EPOCH   = 251
BSTAR          = -.14014639E-1
MEAN_MOTION_DOT = -.1820084E-1
MEAN_MOTION_DDOT = 0

CCSDS_OMM_VERS = 2.0
CREATION_DATE  = 
ORIGINATOR     = 

OBJECT_NAME    = STARLINK-35307
OBJECT_ID      = 2025-232J
CENTER_NAME    = EARTH
REF_FRAME      = TEME
TIME_SYSTEM    = UTC
MEAN_ELEMENT_THEORY = SGP/SGP4

EPOCH          = 2025-10-29T22:00:01.999584
MEAN_MOTION    = 15.74441891
ECCENTRICITY   = .00013326
INCLINATION    = 53.1586
RA_OF_ASC_NODE = 355.2159
ARG_OF_PERICENTER = 99.9019
MEAN_ANOMALY   = 101.5957

EPHEMERIS_TYPE = 0
CLASSIFICATION_TYPE = U
NORAD_CAT_ID   = 66013
ELEMENT_SET_NO = 999
REV_AT_EPOCH   = 244
BSTAR          = -.13767706E-1
MEAN_MOTION_DOT = -.178927E-1
MEAN_MOTION_DDOT = 0

CCSDS_OMM_VERS = 2.0
CREATION_DATE  = 
ORIGINATOR     = 

OBJECT_NAME    = STARLINK-35395
OBJECT_ID      = 2025-232K
CENTER_NAME    = EARTH
REF_FRAME      = TEME
TIME_SYSTEM    = UTC
MEAN_ELEMENT_THEORY = SGP/SGP4

EPOCH          = 2025-10-29T22:00:01.999584
MEAN_MOTION    = 15.74474919
ECCENTRICITY   = .00013085
INCLINATION    = 53.1582
RA_OF_ASC_NODE = 355.2115
ARG_OF_PERICENTER = 101.1317
MEAN_ANOMALY   = 102.2762

EPHEMERIS_TYPE = 0
CLASSIFICATION_TYPE = U
NORAD_CAT_ID   = 66014
ELEMENT_SET_NO = 999
REV_AT_EPOCH   = 250
BSTAR          = -.14125027E-1
MEAN_MOTION_DOT = -.1832057E-1
MEAN_MOTION_DDOT = 0

CCSDS_OMM_VERS = 2.0
CREATION_DATE  = 
ORIGINATOR     = 

OBJECT_NAME    = STARLINK-34622
OBJECT_ID      = 2025-232L
CENTER_NAME    = EARTH
REF_FRAME      = TEME
TIME_SYSTEM    = UTC
MEAN_ELEMENT_THEORY = SGP/SGP4

EPOCH          = 2025-10-29T22:00:01.999584
MEAN_MOTION    = 15.74438272
ECCENTRICITY   = .00015804
INCLINATION    = 53.1584
RA_OF_ASC_NODE = 355.1956
ARG_OF_PERICENTER = 107.7026
MEAN_ANOMALY   = 103.3847

EPHEMERIS_TYPE = 0
CLASSIFICATION_TYPE = U
NORAD_CAT_ID   = 66015
ELEMENT_SET_NO = 999
REV_AT_EPOCH   = 240
BSTAR          = -.13806145E-1
MEAN_MOTION_DOT = -.1793592E-1
MEAN_MOTION_DDOT = 0

CCSDS_OMM_VERS = 2.0
CREATION_DATE  = 
ORIGINATOR     = 

OBJECT_NAME    = STARLINK-35243
OBJECT_ID      = 2025-232M
CENTER_NAME    = EARTH
REF_FRAME      = TEME
TIME_SYSTEM    = UTC
MEAN_ELEMENT_THEORY = SGP/SGP4

EPOCH          = 2025-10-29T22:00:01.999584
MEAN_MOTION    = 15.74454114
ECCENTRICITY   = .00010034
INCLINATION    = 53.1584
RA_OF_ASC_NODE = 355.1995
ARG_OF_PERICENTER = 95.5511
MEAN_ANOMALY   = 113.6139

EPHEMERIS_TYPE = 0
CLASSIFICATION_TYPE = U
NORAD_CAT_ID   = 66016
ELEMENT_SET_NO = 999
REV_AT_EPOCH   = 251
BSTAR          = -.13889331E-1
MEAN_MOTION_DOT = -.1803672E-1
MEAN_MOTION_DDOT = 0

CCSDS_OMM_VERS = 2.0
CREATION_DATE  = 
ORIGINATOR     = 

OBJECT_NAME    = STARLINK-35398
OBJECT_ID      = 2025-232N
CENTER_NAME    = EARTH
REF_FRAME      = TEME
TIME_SYSTEM    = UTC
MEAN_ELEMENT_THEORY = SGP/SGP4

EPOCH          = 2025-10-29T22:00:01.999584
MEAN_MOTION    = 15.74402262
ECCENTRICITY   = .00018578
INCLINATION    = 53.1585
RA_OF_ASC_NODE = 355.1876
ARG_OF_PERICENTER = 111.0386
MEAN_ANOMALY   = 103.9557

EPHEMERIS_TYPE = 0
CLASSIFICATION_TYPE = U
NORAD_CAT_ID   = 66017
ELEMENT_SET_NO = 999
REV_AT_EPOCH   = 243
BSTAR          = -.13840095E-1
MEAN_MOTION_DOT = -.1795202E-1
MEAN_MOTION_DDOT = 0

CCSDS_OMM_VERS = 2.0
CREATION_DATE  = 
ORIGINATOR     = 

OBJECT_NAME    = STARLINK-35376
OBJECT_ID      = 2025-232P
CENTER_NAME    = EARTH
REF_FRAME      = TEME
TIME_SYSTEM    = UTC
MEAN_ELEMENT_THEORY = SGP/SGP4

EPOCH          = 2025-10-29T22:00:01.999584
MEAN_MOTION    = 15.74400269
ECCENTRICITY   = .00015568
INCLINATION    = 53.1584
RA_OF_ASC_NODE = 355.1914
ARG_OF_PERICENTER = 83.9984
MEAN_ANOMALY   = 129.0415

EPHEMERIS_TYPE = 0
CLASSIFICATION_TYPE = U
NORAD_CAT_ID   = 66018
ELEMENT_SET_NO = 999
REV_AT_EPOCH   = 251
BSTAR          = -.13462218E-1
MEAN_MOTION_DOT = -.1751781E-1
MEAN_MOTION_DDOT = 0

CCSDS_OMM_VERS = 2.0
CREATION_DATE  = 
ORIGINATOR     = 

OBJECT_NAME    = STARLINK-35382
OBJECT_ID      = 2025-232Q
CENTER_NAME    = EARTH
REF_FRAME      = TEME
TIME_SYSTEM    = UTC
MEAN_ELEMENT_THEORY = SGP/SGP4

EPOCH          = 2025-10-29T22:00:01.999584
MEAN_MOTION    = 15.74479971
ECCENTRICITY   = .00009396
INCLINATION    = 53.1587
RA_OF_ASC_NODE = 355.2031
ARG_OF_PERICENTER = 87.0618
MEAN_ANOMALY   = 120.1798

EPHEMERIS_TYPE = 0
CLASSIFICATION_TYPE = U
NORAD_CAT_ID   = 66019
ELEMENT_SET_NO = 999
REV_AT_EPOCH   = 251
BSTAR          = -.14204506E-1
MEAN_MOTION_DOT = -.1841086E-1
MEAN_MOTION_DDOT = 0

CCSDS_OMM_VERS = 2.0
CREATION_DATE  = 
ORIGINATOR     = 

OBJECT_NAME    = STARLINK-35430
OBJECT_ID      = 2025-232R
CENTER_NAME    = EARTH
REF_FRAME      = TEME
TIME_SYSTEM    = UTC
MEAN_ELEMENT_THEORY = SGP/SGP4

EPOCH          = 2025-10-29T22:00:01.999584
MEAN_MOTION    = 15.74444431
ECCENTRICITY   = .00009383
INCLINATION    = 53.1580
RA_OF_ASC_NODE = 355.1792
ARG_OF_PERICENTER = 94.2765
MEAN_ANOMALY   = 124.4690

EPHEMERIS_TYPE = 0
CLASSIFICATION_TYPE = U
NORAD_CAT_ID   = 66020
ELEMENT_SET_NO = 999
REV_AT_EPOCH   = 250
BSTAR          = -.13732526E-1
MEAN_MOTION_DOT = -.1785139E-1
MEAN_MOTION_DDOT = 0

CCSDS_OMM_VERS = 2.0
CREATION_DATE  = 
ORIGINATOR     = 

OBJECT_NAME    = STARLINK-35432
OBJECT_ID      = 2025-232S
CENTER_NAME    = EARTH
REF_FRAME      = TEME
TIME_SYSTEM    = UTC
MEAN_ELEMENT_THEORY = SGP/SGP4

EPOCH          = 2025-10-29T22:00:01.999584
MEAN_MOTION    = 15.74468530
ECCENTRICITY   = .00015577
INCLINATION    = 53.1578
RA_OF_ASC_NODE = 355.1826
ARG_OF_PERICENTER = 114.4428
MEAN_ANOMALY   = 102.4616

EPHEMERIS_TYPE = 0
CLASSIFICATION_TYPE = U
NORAD_CAT_ID   = 66021
ELEMENT_SET_NO = 999
REV_AT_EPOCH   = 243
BSTAR          = -.14742882E-1
MEAN_MOTION_DOT = -.1901212E-1
MEAN_MOTION_DDOT = 0

