STARLINK-35297          
1 66010U 25232F   25302.91668981 -.01828500  00000+0 -14091-1 0  9998
2 66010  53.1586 355.2242 0001266  97.7210  99.9196 15.74480071  2515
STARLINK-35256          
1 66011U 25232G   25302.91668981 -.01806840  00000+0 -13912-1 0  9993
2 66011  53.1584 355.2078 0001258  89.2610 116.0644 15.74460361  2511
STARLINK-35293          
1 66012U 25232H   25302.91668981 -.01820084  00000+0 -14015-1 0  9995
2 66012  53.1583 355.2195 0001295  75.2078 124.3316 15.74482515  2518
STARLINK-35307          
1 66013U 25232J   25302.91668981 -.01789270  00000+0 -13768-1 0  9991
2 66013  53.1586 355.2159 0001332  99.9019 101.5957 15.74441891  2444
STARLINK-35395          
1 66014U 25232K   25302.91668981 -.01832057  00000+0 -14125-1 0  9992
2 66014  53.1582 355.2115 0001308 101.1317 102.2762 15.74474919  2509
STARLINK-34622          
1 66015U 25232L   25302.91668981 -.01793592  00000+0 -13806-1 0  9998
2 66015  53.1584 355.1956 0001580 107.7026 103.3847 15.74438272  2402
STARLINK-35243          
1 66016U 25232M   25302.91668981 -.01803672  00000+0 -13889-1 0  9991
2 66016  53.1584 355.1995 0001003  95.5511 113.6139 15.74454114  2512
STARLINK-35398          
1 66017U 25232N   25302.91668981 -.01795202  00000+0 -13840-1 0  9998
2 66017  53.1585 355.1876 0001857 111.0386 103.9557 15.74402262  2437
STARLINK-35376          
1 66018U 25232P   25302.91668981 -.01751781  00000+0 -13462-1 0  9993
2 66018  53.1584 355.1914 0001556  83.9984 129.0415 15.74400269  2513
STARLINK-35382          
1 66019U 25232Q   25302.91668981 -.01841086  00000+0 -14205-1 0  9998
2 66019  53.1587 355.2031 0000939  87.0618 120.1798 15.74479971  2513
STARLINK-35430          
1 66020U 25232R   25302.91668981 -.01785139  00000+0 -13733-1 0  9991
2 66020  53.1580 355.1792 0000938  94.2765 124.4690 15.74444431  2503
STARLINK-35432          
1 66021U 25232S   25302.91668981 -.01901212  00000+0 -14743-1 0  9996
2 66021  53.1578 355.1826 0001557 114.4428 102.4616 15.74468530  2430
